{
  "norad_id": 61529,
  "name": "STARLINK-32351",
  "history": [
    {
      "epoch": "2026-03-28T15:12:32.548320",
      "apogee_km": 476.1868420198916,
      "perigee_km": 474.265159034544,
      "latitude_deg": 23.414947385355987,
      "longitude_deg": 33.73616479989141,
      "semi_major_axis_km": 6853.363000527218,
      "eccentricity": 0.0001402,
      "inclination_deg": 53.162,
      "raan_deg": 51.5696,
      "arg_perigee_deg": 89.1388,
      "mean_anomaly_deg": 270.9774,
      "mean_motion_rev_day": 15.30196339
    },
    {
      "epoch": "2026-03-29T03:44:58.075872",
      "apogee_km": 476.22354261832425,
      "perigee_km": 474.2305843486629,
      "latitude_deg": -53.09501087563417,
      "longitude_deg": 83.89786207978614,
      "semi_major_axis_km": 6853.364063483493,
      "eccentricity": 0.0001454,
      "inclination_deg": 53.162,
      "raan_deg": 49.1425,
      "arg_perigee_deg": 91.9898,
      "mean_anomaly_deg": 268.127,
      "mean_motion_rev_day": 15.30195983
    }
  ]
}